     3.00           N                   E                   RINEX VERSION / TYPE
BRD_USR             ESA                 20190114 101750  UTCPGM / RUN BY / DATE
 GAL   4.0250E+01  1.6406E-01 -7.0190E-04  0.0000E+00       IONOSPHERIC CORR
GAUT  1.8626451492E-09-1.776356839E-15  86400 2036 GSTB   0 TIME SYSTEM CORR
GPGA -4.9476511776E-10-6.217248938E-15  86400 2036 GSTB   0 TIME SYSTEM CORR
                                                            END OF HEADER
E27 2019 01 14 08 00 00 5.500348052010E-04-7.730704965070E-12 0.000000000000E+00
     6.400000000000E+01 5.062500000000E+01 2.865119343721E-09 7.792394918698E-01
     2.425163984299E-06 1.761819003150E-04 4.520639777184E-06 5.440621238708E+03
     1.152000000000E+05-2.235174179077E-08-3.073053370402E+00 2.421438694000E-08
     9.896386390159E-01 2.557812500000E+02-8.029403798155E-01-5.654164090058E-09
    -8.571785620706E-12 5.210000000000E+02 2.036000000000E+03 0.000000000000E+00
     3.120000000000E+00 0.000000000000E+00-2.793967723846E-09-3.259629011154E-09
     1.174750000000E+05 0.000000000000E+00 0.000000000000E+00 0.000000000000E+00
E07 2019 01 14 08 20 00-1.122992835008E-04-7.119638212316E-12 0.000000000000E+00
     6.600000000000E+01-6.209375000000E+01 3.245492330640E-09 2.201514062766E+00
    -2.937391400337E-06 1.316542038694E-04 1.014955341816E-05 5.440620191574E+03
     1.164000000000E+05 2.980232238770E-08 1.120155156147E+00-5.960464477539E-08
     9.524877173595E-01 1.193437500000E+02-4.286598668326E-03-5.609876531018E-09
    -3.214419607765E-10 2.580000000000E+02 2.036000000000E+03 0.000000000000E+00
     3.120000000000E+00 0.000000000000E+00 2.328306436539E-10 0.000000000000E+00
     1.175000000000E+05 0.000000000000E+00 0.000000000000E+00 0.000000000000E+00
E05 2019 01 14 08 20 00 1.253219670616E-04-6.480149750132E-12 0.000000000000E+00
     6.600000000000E+01-3.196875000000E+01 3.315138088808E-09 2.930671654306E+00
    -1.467764377594E-06 1.341419992968E-04 1.021288335323E-05 5.440618684769E+03
     1.164000000000E+05 5.029141902924E-08 1.120135860258E+00 4.097819328308E-08
     9.524560027584E-01 1.178437500000E+02 1.624471262183E+00-5.635949045614E-09
    -2.414386283166E-10 5.210000000000E+02 2.036000000000E+03 0.000000000000E+00
     3.120000000000E+00 0.000000000000E+00-1.629814505577E-09-1.629814505577E-09
     1.175350000000E+05 0.000000000000E+00 0.000000000000E+00 0.000000000000E+00
E07 2019 01 14 08 20 00-1.122990506701E-04-7.119638212316E-12 0.000000000000E+00
     6.600000000000E+01-6.209375000000E+01 3.245492330640E-09 2.201514062766E+00
    -2.937391400337E-06 1.316542038694E-04 1.014955341816E-05 5.440620191574E+03
     1.164000000000E+05 2.980232238770E-08 1.120155156147E+00-5.960464477539E-08
     9.524877173595E-01 1.193437500000E+02-4.286598668326E-03-5.609876531018E-09
    -3.214419607765E-10 5.210000000000E+02 2.036000000000E+03 0.000000000000E+00
     3.120000000000E+00 0.000000000000E+00 2.328306436539E-10 2.328306436539E-10
     1.175350000000E+05 0.000000000000E+00 0.000000000000E+00 0.000000000000E+00
E09 2019 01 14 08 20 00 6.558703549672E-03-1.132605120802E-11 0.000000000000E+00
     6.600000000000E+01-3.031250000000E+01 3.189775724105E-09-1.038487769001E+00
    -1.478940248489E-06 2.389842411503E-04 1.009926199913E-05 5.440617185593E+03
     1.164000000000E+05 3.725290298462E-09 1.111546303108E+00 1.862645149231E-08
     9.584596122843E-01 1.246250000000E+02 9.405116716291E-02-5.541302246052E-09
    -2.246522148093E-10 5.210000000000E+02 2.036000000000E+03 0.000000000000E+00
     3.120000000000E+00 0.000000000000E+00-3.492459654808E-09-3.958120942116E-09
     1.175650000000E+05 0.000000000000E+00 0.000000000000E+00 0.000000000000E+00
E09 2019 01 14 08 20 00 6.558703957126E-03-1.131184035330E-11 0.000000000000E+00
     6.600000000000E+01-3.031250000000E+01 3.189775724105E-09-1.038487769001E+00
    -1.478940248489E-06 2.389842411503E-04 1.009926199913E-05 5.440617185593E+03
     1.164000000000E+05 3.725290298462E-09 1.111546303108E+00 1.862645149231E-08
     9.584596122843E-01 1.246250000000E+02 9.405116716291E-02-5.541302246052E-09
    -2.246522148093E-10 2.580000000000E+02 2.036000000000E+03 0.000000000000E+00
     3.120000000000E+00 0.000000000000E+00-3.492459654808E-09 0.000000000000E+00
     1.176000000000E+05 0.000000000000E+00 0.000000000000E+00 0.000000000000E+00
E27 2019 01 14 08 00 00 5.500349216163E-04-7.730704965070E-12 0.000000000000E+00
     6.400000000000E+01 5.062500000000E+01 2.865119343721E-09 7.792394918698E-01
     2.425163984299E-06 1.761819003150E-04 4.520639777184E-06 5.440621238708E+03
     1.152000000000E+05-2.235174179077E-08-3.073053370402E+00 2.421438694000E-08
     9.896386390159E-01 2.557812500000E+02-8.029403798155E-01-5.654164090058E-09
    -8.571785620706E-12 2.580000000000E+02 2.036000000000E+03 0.000000000000E+00
     3.120000000000E+00 0.000000000000E+00-2.793967723846E-09 0.000000000000E+00
     1.176000000000E+05 0.000000000000E+00 0.000000000000E+00 0.000000000000E+00
E11 2019 01 14 08 10 00 5.719760374632E-03 7.815970093361E-13 0.000000000000E+00
     6.500000000000E+01 6.875000000000E+00 2.886548807773E-09 1.425958859859E+00
     2.607703208923E-07 2.819569781423E-04 7.506459951401E-06 5.440603427887E+03
     1.158000000000E+05-2.235174179077E-08-9.851779501703E-01 2.980232238770E-08
     9.819689589030E-01 1.900937500000E+02-3.488340784996E-01-5.543802350192E-09
     2.864405028253E-10 2.580000000000E+02 2.036000000000E+03 0.000000000000E+00
     3.120000000000E+00 0.000000000000E+00-1.862645149231E-08 0.000000000000E+00
     1.176500000000E+05 0.000000000000E+00 0.000000000000E+00 0.000000000000E+00
E11 2019 01 14 08 10 00 5.719759385101E-03 7.958078640513E-13 0.000000000000E+00
     6.500000000000E+01 6.875000000000E+00 2.886548807773E-09 1.425958859859E+00
     2.607703208923E-07 2.819569781423E-04 7.506459951401E-06 5.440603427887E+03
     1.158000000000E+05-2.235174179077E-08-9.851779501703E-01 2.980232238770E-08
     9.819689589030E-01 1.900937500000E+02-3.488340784996E-01-5.543802350192E-09
     2.864405028253E-10 5.210000000000E+02 2.036000000000E+03 0.000000000000E+00
     3.120000000000E+00 0.000000000000E+00-1.862645149231E-08-2.002343535423E-08
     1.176550000000E+05 0.000000000000E+00 0.000000000000E+00 0.000000000000E+00
E02 2019 01 14 08 30 00 4.327093483880E-05 1.577404873387E-12 0.000000000000E+00
     6.700000000000E+01 4.318750000000E+01 2.913692795572E-09 1.877857572443E+00
     1.965090632439E-06 2.569657517597E-04 4.550442099571E-06 5.440615877151E+03
     1.170000000000E+05-1.117587089539E-08-3.070502769805E+00-3.352761268616E-08
     9.901109860054E-01 2.558437500000E+02-1.267121035763E-01-5.676307869578E-09
    -8.714648714384E-11 5.210000000000E+02 2.036000000000E+03 0.000000000000E+00
     3.120000000000E+00 0.000000000000E+00-6.053596735001E-09-7.450580596924E-09
     1.176850000000E+05 0.000000000000E+00 0.000000000000E+00 0.000000000000E+00
E03 2019 01 14 08 30 00-1.220113481395E-04-4.263256414561E-12 0.000000000000E+00
     6.700000000000E+01-3.300000000000E+01 3.317281035213E-09-3.062819619142E+00
    -1.525506377220E-06 2.584147732705E-04 1.050345599651E-05 5.440623607635E+03
     1.170000000000E+05 6.146728992462E-08 1.120149659964E+00-3.725290298462E-08
     9.524422908273E-01 1.083125000000E+02 6.216586625786E-01-5.672379134502E-09
    -3.021554431299E-10 5.210000000000E+02 2.036000000000E+03 0.000000000000E+00
     3.120000000000E+00 0.000000000000E+00-1.862645149231E-09-2.095475792885E-09
     1.176850000000E+05 0.000000000000E+00 0.000000000000E+00 0.000000000000E+00
E04 2019 01 14 08 30 00-1.997396466322E-04-7.901235221652E-12 0.000000000000E+00
     6.700000000000E+01-3.793750000000E+01 3.274064949376E-09-2.190509827664E+00
    -1.883134245872E-06 7.463106885552E-05 9.292736649513E-06 5.440621503830E+03
     1.170000000000E+05-2.607703208923E-08 1.120200271078E+00 2.235174179077E-08
     9.524862661447E-01 1.351250000000E+02 2.110079905366E+00-5.629520206399E-09
    -2.282237921513E-10 5.210000000000E+02 2.036000000000E+03 0.000000000000E+00
     3.120000000000E+00 0.000000000000E+00-8.149072527885E-09-9.080395102501E-09
     1.176850000000E+05 0.000000000000E+00 0.000000000000E+00 0.000000000000E+00
E05 2019 01 14 08 30 00 1.253180089407E-04-6.480149750132E-12 0.000000000000E+00
     6.700000000000E+01-3.081250000000E+01 3.323709874429E-09 3.004611157681E+00
    -1.419335603714E-06 1.344366464764E-04 1.012720167637E-05 5.440618083954E+03
     1.170000000000E+05 4.470348358154E-08 1.120132439955E+00 4.842877388000E-08
     9.524558476891E-01 1.198750000000E+02 1.624916902140E+00-5.634520414677E-09
    -2.360812623036E-10 5.210000000000E+02 2.036000000000E+03 0.000000000000E+00
     3.120000000000E+00 0.000000000000E+00-1.629814505577E-09-1.629814505577E-09
     1.176850000000E+05 0.000000000000E+00 0.000000000000E+00 0.000000000000E+00
E07 2019 01 14 08 30 00-1.123033580370E-04-7.119638212316E-12 0.000000000000E+00
     6.700000000000E+01-6.075000000000E+01 3.257278535868E-09 2.276652955620E+00
    -2.890825271606E-06 1.318197464570E-04 1.017190515995E-05 5.440619806290E+03
     1.170000000000E+05 2.980232238770E-08 1.120151828008E+00-5.215406417847E-08
     9.524875066993E-01 1.186562500000E+02-5.040450594999E-03-5.615233897031E-09
    -3.242992226500E-10 5.210000000000E+02 2.036000000000E+03 0.000000000000E+00
     3.120000000000E+00 0.000000000000E+00 2.328306436539E-10 2.328306436539E-10
     1.176850000000E+05 0.000000000000E+00 0.000000000000E+00 0.000000000000E+00
